start=new Date('2022-04-17T00:00:00.000Z').valueOf();
sats=[{"RA_OF_ASC_NODE":"37.7204","CLASSIFICATION_TYPE":"U","INCLINATION":"53.0073","GP_ID":"201417267","MEAN_ELEMENT_THEORY":"SGP4","SEMIMAJOR_AXIS":"6864.755","EPOCH":"2022-04-16T20:01:48.239040","REV_AT_EPOCH":"15879","SITE":"AFETR","APOAPSIS":"490.393","PERIOD":"94.340","BSTAR":"0.00194720000000","FILE":"3404767","ECCENTRICITY":"0.00054960","PERIAPSIS":"482.847","TIME_SYSTEM":"UTC","OBJECT_TYPE":"PAYLOAD","TLE_LINE2":"2 44238  53.0073  37.7204 0005496 125.3060 234.8452 15.26388946158795","RCS_SIZE":"LARGE","OBJECT_NAME":"STARLINK-24","ARG_OF_PERICENTER":"125.3060","CENTER_NAME":"EARTH","MEAN_MOTION_DDOT":"0.0000000000000","REF_FRAME":"TEME","MEAN_ANOMALY":"234.8452","LAUNCH_DATE":"2019-05-24","ELEMENT_SET_NO":"999","TLE_LINE1":"1 44238U 19029D   22106.83458610  .00051360  00000-0  19472-2 0  9998","MEAN_MOTION":"15.26388946","COUNTRY_CODE":"US","MEAN_MOTION_DOT":"0.00051360","NORAD_CAT_ID":"44238","EPHEMERIS_TYPE":"0","DECAY_DATE":null,"OBJECT_ID":"2019-029D"},{"MEAN_MOTION_DDOT":"0.0000000000000","CENTER_NAME":"EARTH","REF_FRAME":"TEME","RCS_SIZE":"LARGE","ARG_OF_PERICENTER":"246.7320","OBJECT_NAME":"STARLINK-61","TLE_LINE1":"1 44249U 19029Q   22106.95016015  .00098997  00000-0  25255-2 0  9995","ELEMENT_SET_NO":"999","LAUNCH_DATE":"2019-05-24","MEAN_ANOMALY":"113.3146","MEAN_MOTION_DOT":"0.00098997","NORAD_CAT_ID":"44249","COUNTRY_CODE":"US","MEAN_MOTION":"15.38715033","DECAY_DATE":null,"OBJECT_ID":"2019-029Q","EPHEMERIS_TYPE":"0","INCLINATION":"52.9753","CLASSIFICATION_TYPE":"U","RA_OF_ASC_NODE":"357.0258","GP_ID":"201418018","SEMIMAJOR_AXIS":"6828.045","EPOCH":"2022-04-16T22:48:13.836960","REV_AT_EPOCH":"16006","MEAN_ELEMENT_THEORY":"SGP4","FILE":"3404767","SITE":"AFETR","BSTAR":"0.00252550000000","PERIOD":"93.585","APOAPSIS":"453.383","TIME_SYSTEM":"UTC","PERIAPSIS":"446.437","TLE_LINE2":"2 44249  52.9753 357.0258 0005086 246.7320 113.3146 15.38715033160067","OBJECT_TYPE":"PAYLOAD","ECCENTRICITY":"0.00050860"},{"TLE_LINE1":"1 44252U 19029T   22106.80849114  .00051891  00000-0  18210-2 0  9992","ELEMENT_SET_NO":"999","LAUNCH_DATE":"2019-05-24","MEAN_ANOMALY":"233.3303","MEAN_MOTION_DDOT":"0.0000000000000","CENTER_NAME":"EARTH","REF_FRAME":"TEME","RCS_SIZE":"LARGE","ARG_OF_PERICENTER":"126.8275","OBJECT_NAME":"STARLINK-71","DECAY_DATE":null,"OBJECT_ID":"2019-029T","EPHEMERIS_TYPE":"0","MEAN_MOTION_DOT":"0.00051891","NORAD_CAT_ID":"44252","MEAN_MOTION":"15.28923927","COUNTRY_CODE":"US","SEMIMAJOR_AXIS":"6857.165","REV_AT_EPOCH":"15947","EPOCH":"2022-04-16T19:24:13.634496","MEAN_ELEMENT_THEORY":"SGP4","INCLINATION":"53.0001","CLASSIFICATION_TYPE":"U","RA_OF_ASC_NODE":"34.7122","GP_ID":"201418269","PERIAPSIS":"474.702","TIME_SYSTEM":"UTC","TLE_LINE2":"2 44252  53.0001  34.7122 0006311 126.8275 233.3303 15.28923927159470","OBJECT_TYPE":"PAYLOAD","ECCENTRICITY":"0.00063110","FILE":"3404767","SITE":"AFETR","BSTAR":"0.00182100000000","PERIOD":"94.184","APOAPSIS":"483.357"},{"EPHEMERIS_TYPE":"0","DECAY_DATE":null,"OBJECT_ID":"2019-029AZ","COUNTRY_CODE":"US","MEAN_MOTION":"15.70012993","MEAN_MOTION_DOT":"0.00382328","NORAD_CAT_ID":"44282","LAUNCH_DATE":"2019-05-24","ELEMENT_SET_NO":"999","MEAN_ANOMALY":"85.7082","TLE_LINE1":"1 44282U 19029AZ  22106.73952141  .00382328  00000-0  29728-2 0  9990","RCS_SIZE":"LARGE","ARG_OF_PERICENTER":"274.2686","OBJECT_NAME":"STARLINK-80","MEAN_MOTION_DDOT":"0.0000000000000","CENTER_NAME":"EARTH","REF_FRAME":"TEME","ECCENTRICITY":"0.00109220","PERIAPSIS":"351.504","TIME_SYSTEM":"UTC","TLE_LINE2":"2 44282  53.0063 283.5925 0010922 274.2686  85.7082 15.70012993160567","OBJECT_TYPE":"PAYLOAD","SITE":"AFETR","BSTAR":"0.00297280000000","PERIOD":"91.719","APOAPSIS":"366.220","FILE":"3404767","MEAN_ELEMENT_THEORY":"SGP4","SEMIMAJOR_AXIS":"6736.997","REV_AT_EPOCH":"16056","EPOCH":"2022-04-16T17:44:54.649824","CLASSIFICATION_TYPE":"U","INCLINATION":"53.0063","RA_OF_ASC_NODE":"283.5925","GP_ID":"201418516"},{"NORAD_CAT_ID":"44713","MEAN_MOTION_DOT":"0.00000692","MEAN_MOTION":"15.06398307","COUNTRY_CODE":"US","OBJECT_ID":"2019-074A","DECAY_DATE":null,"EPHEMERIS_TYPE":"0","REF_FRAME":"TEME","CENTER_NAME":"EARTH","MEAN_MOTION_DDOT":"0.0000000000000","OBJECT_NAME":"STARLINK-1007","ARG_OF_PERICENTER":"65.3953","RCS_SIZE":"LARGE","TLE_LINE1":"1 44713U 19074A   22106.91668287  .00000692  00000-0  65369-4 0  9998","MEAN_ANOMALY":"294.7192","LAUNCH_DATE":"2019-11-11","ELEMENT_SET_NO":"999","FILE":"3404767","APOAPSIS":"548.259","PERIOD":"95.592","BSTAR":"0.00006536900000","SITE":"AFETR","OBJECT_TYPE":"PAYLOAD","TLE_LINE2":"2 44713  53.0524  93.6834 0001502  65.3953 294.7192 15.06398307134309","TIME_SYSTEM":"UTC","PERIAPSIS":"546.179","ECCENTRICITY":"0.00015020","GP_ID":"201418555","CLASSIFICATION_TYPE":"U","RA_OF_ASC_NODE":"93.6834","INCLINATION":"53.0524","REV_AT_EPOCH":"13430","EPOCH":"2022-04-16T22:00:01.399968","SEMIMAJOR_AXIS":"6925.354","MEAN_ELEMENT_THEORY":"SGP4"},{"PERIAPSIS":"545.941","TIME_SYSTEM":"UTC","OBJECT_TYPE":"PAYLOAD","TLE_LINE2":"2 44714  53.0549  93.8022 0001845  59.4955 300.6216 15.06398386134305","ECCENTRICITY":"0.00018450","FILE":"3404767","SITE":"AFETR","APOAPSIS":"548.496","PERIOD":"95.592","BSTAR":"0.00003595100000","SEMIMAJOR_AXIS":"6925.354","REV_AT_EPOCH":"13430","EPOCH":"2022-04-16T21:29:32.654976","MEAN_ELEMENT_THEORY":"SGP4","INCLINATION":"53.0549","CLASSIFICATION_TYPE":"U","RA_OF_ASC_NODE":"93.8022","GP_ID":"201417807","DECAY_DATE":null,"OBJECT_ID":"2019-074B","EPHEMERIS_TYPE":"0","MEAN_MOTION_DOT":"0.00000254","NORAD_CAT_ID":"44714","COUNTRY_CODE":"US","MEAN_MOTION":"15.06398386","TLE_LINE1":"1 44714U 19074B   22106.89551684  .00000254  00000-0  35951-4 0  9996","MEAN_ANOMALY":"300.6216","ELEMENT_SET_NO":"999","LAUNCH_DATE":"2019-11-11","CENTER_NAME":"EARTH","MEAN_MOTION_DDOT":"0.0000000000000","REF_FRAME":"TEME","RCS_SIZE":"LARGE","OBJECT_NAME":"STARLINK-1008","ARG_OF_PERICENTER":"59.4955"},{"SEMIMAJOR_AXIS":"6925.351","EPOCH":"2022-04-16T21:13:37.332768","REV_AT_EPOCH":"13429","MEAN_ELEMENT_THEORY":"SGP4","CLASSIFICATION_TYPE":"U","INCLINATION":"53.0550","RA_OF_ASC_NODE":"93.8409","GP_ID":"201417557","TIME_SYSTEM":"UTC","PERIAPSIS":"546.186","OBJECT_TYPE":"PAYLOAD","TLE_LINE2":"2 44715  53.0550  93.8409 0001488  70.9615 289.1535 15.06399176134292","ECCENTRICITY":"0.00014880","FILE":"3404767","SITE":"AFETR","PERIOD":"95.592","APOAPSIS":"548.247","BSTAR":"0.00001985600000","TLE_LINE1":"1 44715U 19074C   22106.88445987  .00000014  00000-0  19856-4 0  9994","MEAN_ANOMALY":"289.1535","ELEMENT_SET_NO":"999","LAUNCH_DATE":"2019-11-11","CENTER_NAME":"EARTH","MEAN_MOTION_DDOT":"0.0000000000000","REF_FRAME":"TEME","RCS_SIZE":"LARGE","OBJECT_NAME":"STARLINK-1009","ARG_OF_PERICENTER":"70.9615","DECAY_DATE":null,"OBJECT_ID":"2019-074C","EPHEMERIS_TYPE":"0","MEAN_MOTION_DOT":"0.00000014","NORAD_CAT_ID":"44715","MEAN_MOTION":"15.06399176","COUNTRY_CODE":"US"},{"REF_FRAME":"TEME","MEAN_MOTION_DDOT":"0.0000000000000","CENTER_NAME":"EARTH","ARG_OF_PERICENTER":"67.0030","OBJECT_NAME":"STARLINK-1010","RCS_SIZE":"LARGE","TLE_LINE1":"1 44716U 19074D   22106.70385837 -.00001187  00000-0 -60813-4 0  9996","ELEMENT_SET_NO":"999","LAUNCH_DATE":"2019-11-11","MEAN_ANOMALY":"293.1146","NORAD_CAT_ID":"44716","MEAN_MOTION_DOT":"-0.00001187","MEAN_MOTION":"15.06401470","COUNTRY_CODE":"US","OBJECT_ID":"2019-074D","DECAY_DATE":null,"EPHEMERIS_TYPE":"0","GP_ID":"201418809","INCLINATION":"53.0536","RA_OF_ASC_NODE":"94.6574","CLASSIFICATION_TYPE":"U","REV_AT_EPOCH":"13425","EPOCH":"2022-04-16T16:53:33.363168","SEMIMAJOR_AXIS":"6925.344","MEAN_ELEMENT_THEORY":"SGP4","FILE":"3404767","BSTAR":"-0.00006081300000","PERIOD":"95.592","APOAPSIS":"548.436","SITE":"AFETR","TLE_LINE2":"2 44716  53.0536  94.6574 0001772  67.0030 293.1146 15.06401470134253","OBJECT_TYPE":"PAYLOAD","PERIAPSIS":"545.982","TIME_SYSTEM":"UTC","ECCENTRICITY":"0.00017720"},{"TLE_LINE1":"1 44717U 19074E   22106.50295970 -.00001431  00000-0 -77148-4 0  9994","MEAN_ANOMALY":"309.9046","LAUNCH_DATE":"2019-11-11","ELEMENT_SET_NO":"999","REF_FRAME":"TEME","CENTER_NAME":"EARTH","MEAN_MOTION_DDOT":"0.0000000000000","OBJECT_NAME":"STARLINK-1011","ARG_OF_PERICENTER":"50.2119","RCS_SIZE":"LARGE","OBJECT_ID":"2019-074E","DECAY_DATE":null,"EPHEMERIS_TYPE":"0","NORAD_CAT_ID":"44717","MEAN_MOTION_DOT":"-0.00001431","COUNTRY_CODE":"US","MEAN_MOTION":"15.06397068","REV_AT_EPOCH":"13396","EPOCH":"2022-04-16T12:04:15.718080","SEMIMAJOR_AXIS":"6925.358","MEAN_ELEMENT_THEORY":"SGP4","GP_ID":"201382660","RA_OF_ASC_NODE":"115.5381","CLASSIFICATION_TYPE":"U","INCLINATION":"53.0525","OBJECT_TYPE":"PAYLOAD","TLE_LINE2":"2 44717  53.0525 115.5381 0002001  50.2119 309.9046 15.06397068133968","TIME_SYSTEM":"UTC","PERIAPSIS":"545.837","ECCENTRICITY":"0.00020010","FILE":"3404318","PERIOD":"95.592","APOAPSIS":"548.608","BSTAR":"-0.00007714800000","SITE":"AFETR"},{"OBJECT_NAME":"STARLINK-1012","ARG_OF_PERICENTER":"65.6791","RCS_SIZE":"LARGE","REF_FRAME":"TEME","CENTER_NAME":"EARTH","MEAN_MOTION_DDOT":"0.0000000000000","MEAN_ANOMALY":"294.4370","LAUNCH_DATE":"2019-11-11","ELEMENT_SET_NO":"999","TLE_LINE1":"1 44718U 19074F   22106.67437182 -.00000633  00000-0 -23588-4 0  9998","COUNTRY_CODE":"US","MEAN_MOTION":"15.06397958","NORAD_CAT_ID":"44718","MEAN_MOTION_DOT":"-0.00000633","EPHEMERIS_TYPE":"0","OBJECT_ID":"2019-074F","DECAY_DATE":null,"GP_ID":"201417307","INCLINATION":"53.0552","CLASSIFICATION_TYPE":"U","RA_OF_ASC_NODE":"94.7847","MEAN_ELEMENT_THEORY":"SGP4","EPOCH":"2022-04-16T16:11:05.725248","REV_AT_EPOCH":"13426","SEMIMAJOR_AXIS":"6925.355","PERIOD":"95.592","APOAPSIS":"548.364","BSTAR":"-0.00002358800000","SITE":"AFETR","FILE":"3404767","ECCENTRICITY":"0.00016520","OBJECT_TYPE":"PAYLOAD","TLE_LINE2":"2 44718  53.0552  94.7847 0001652  65.6791 294.4370 15.06397958134261","TIME_SYSTEM":"UTC","PERIAPSIS":"546.076"}];
